#
# this file is automatically produced by convkeps.pl
#
# Last update: Sat Dec 30 18:26:33 2000
#

package Sun;


%keps = (
  'AO-21' => {
    orbit => '49639',
    raan => '182.0433',
    meananomaly => '65.8001',
    eccentricity => '0.0034401',
    meanmotion => '13.74747564',
    inclination => '82.9406',
    number => '91006',
    argperigee => '293.9553',
    mm1 => '8.8e-07',
    mm2 => '0',
    bstar => '7.6761e-05',
    id => '21087',
    elset => '239',
    epoch => '356.00400679'
  },
  'AO-40' => {
    orbit => '61',
    raan => '237.0656',
    meananomaly => '97.8405',
    eccentricity => '0.8128421',
    meanmotion => '1.2686657',
    inclination => '6.2479',
    number => '72',
    argperigee => '195.4843',
    mm1 => '-2.92e-06',
    mm2 => '0',
    bstar => '0',
    id => '26609',
    elset => '16',
    epoch => '354.78150683'
  },
  RESURS => {
    orbit => '12725',
    raan => '70.0001',
    meananomaly => '164.8459',
    eccentricity => '0.0001016',
    meanmotion => '14.22980936',
    inclination => '98.7071',
    number => '98043',
    argperigee => '195.2682',
    mm1 => '1.95e-06',
    mm2 => '0',
    bstar => '0.0001062',
    id => '25394',
    elset => '923',
    epoch => '356.31938128'
  },
  'FO-20' => {
    orbit => '50922',
    raan => '91.5094',
    meananomaly => '6.5126',
    eccentricity => '0.0541213',
    meanmotion => '12.83284554',
    inclination => '99.0749',
    number => '90013',
    argperigee => '352.8465',
    mm1 => '5e-08',
    mm2 => '0',
    bstar => '8.7952e-05',
    id => '20480',
    elset => '277',
    epoch => '355.86959518'
  },
  'RS-10/11' => {
    orbit => '67613',
    raan => '10.7535',
    meananomaly => '96.9477',
    eccentricity => '0.0010175',
    meanmotion => '13.72537204',
    inclination => '82.9253',
    number => '87054',
    argperigee => '263.0521',
    mm1 => '7.7e-07',
    mm2 => '0',
    bstar => '6.825e-05',
    id => '18129',
    elset => '912',
    epoch => '355.55560787'
  },
  OCS => {
    orbit => '4779',
    raan => '263.5965',
    meananomaly => '12.499',
    eccentricity => '0.0022433',
    meanmotion => '14.81378842',
    inclination => '100.2182',
    number => '4',
    argperigee => '347.6221',
    mm1 => '0.00237336',
    mm2 => '0',
    bstar => '0.030241',
    id => '26062',
    elset => '405',
    epoch => '356.70018964'
  },
  'AO-27' => {
    orbit => '37718',
    raan => '46.1342',
    meananomaly => '289.1197',
    eccentricity => '0.0009513',
    meanmotion => '14.28305935',
    inclination => '98.3809',
    number => '93061',
    argperigee => '71.1015',
    mm1 => '2.17e-06',
    mm2 => '0',
    bstar => '0.00010348',
    id => '22825',
    elset => '866',
    epoch => '356.29511818'
  },
  POSAT => {
    orbit => '37728',
    raan => '47.1902',
    meananomaly => '304.3857',
    eccentricity => '0.0011013',
    meanmotion => '14.28924172',
    inclination => '98.3776',
    number => '93061',
    argperigee => '55.8388',
    mm1 => '3.2e-06',
    mm2 => '0',
    bstar => '0.00014301',
    id => '22829',
    elset => '860',
    epoch => '356.15351165'
  },
  MIR => {
    orbit => '84870',
    raan => '14.9528',
    meananomaly => '231.2527',
    eccentricity => '0.0016068',
    meanmotion => '15.84741655',
    inclination => '51.6493',
    number => '86017',
    argperigee => '138.854',
    mm1 => '0.00102535',
    mm2 => '0',
    bstar => '0.00042632',
    id => '16609',
    elset => '341',
    epoch => '356.86032407'
  },
  'RS-12/13' => {
    orbit => '49529',
    raan => '47.4247',
    meananomaly => '30.7599',
    eccentricity => '0.0029011',
    meanmotion => '13.74240041',
    inclination => '82.9233',
    number => '91007',
    argperigee => '329.1853',
    mm1 => '8.9e-07',
    mm2 => '0',
    bstar => '7.8558e-05',
    id => '21089',
    elset => '301',
    epoch => '355.6903423'
  },
  'MET-3/5' => {
    orbit => '44954',
    raan => '236.6517',
    meananomaly => '345.545',
    eccentricity => '0.0014',
    meanmotion => '13.16918542',
    inclination => '82.5583',
    number => '91056',
    argperigee => '14.6075',
    mm1 => '5.1e-07',
    mm2 => '0',
    bstar => '0.0001',
    id => '21655',
    elset => '388',
    epoch => '355.93379193'
  },
  JAWSAT => {
    orbit => '693',
    meananomaly => '304.7691',
    raan => '280.8828',
    eccentricity => '0.003852',
    meanmotion => '14.34110882',
    inclination => '100.2316',
    number => '4',
    mm1 => '7.8e-06',
    argperigee => '55.7126',
    bstar => '0.00029735',
    mm2 => '0',
    elset => '32',
    id => '26065',
    epoch => '75.52219673'
  },
  'KO-23' => {
    orbit => '39273',
    raan => '339.3634',
    meananomaly => '84.2854',
    eccentricity => '0.0015832',
    meanmotion => '12.86356675',
    inclination => '66.0865',
    number => '92052',
    argperigee => '275.6359',
    mm1 => '-3.7e-07',
    mm2 => '0',
    bstar => '0.0001',
    id => '22077',
    elset => '3',
    epoch => '355.91042934'
  },
  'TIUNGSAT-1' => {
    orbit => '1265',
    raan => '289.4226',
    meananomaly => '346.3645',
    eccentricity => '0.0010825',
    meanmotion => '14.75965315',
    inclination => '64.5588',
    number => '57',
    argperigee => '13.7759',
    mm1 => '2.531e-05',
    mm2 => '0',
    bstar => '0.00038607',
    id => '26548',
    elset => '45',
    epoch => '356.20758273'
  },
  'NOAA-10' => {
    orbit => '74145',
    raan => '340.0358',
    meananomaly => '135.684',
    eccentricity => '0.001173',
    meanmotion => '14.26064655',
    inclination => '98.659',
    number => '86073',
    argperigee => '224.3401',
    mm1 => '4.73e-06',
    mm2 => '0',
    bstar => '0.00021629',
    id => '16969',
    elset => '688',
    epoch => '356.87579151'
  },
  'IO-26' => {
    orbit => '37719',
    raan => '46.7107',
    meananomaly => '290.0889',
    eccentricity => '0.0009833',
    meanmotion => '14.2846651',
    inclination => '98.3839',
    number => '93061',
    argperigee => '70.1347',
    mm1 => '3.16e-06',
    mm2 => '0',
    bstar => '0.0001429',
    id => '22826',
    elset => '858',
    epoch => '356.15154824'
  },
  'FO-29' => {
    orbit => '21451',
    raan => '238.9168',
    meananomaly => '259.9342',
    eccentricity => '0.035203',
    meanmotion => '13.52751936',
    inclination => '98.5692',
    number => '96046',
    argperigee => '104.1176',
    mm1 => '1.4e-07',
    mm2 => '0',
    bstar => '4.7831e-05',
    id => '24278',
    elset => '421',
    epoch => '355.73011057'
  },
  'NOAA-11' => {
    orbit => '63132',
    raan => '61.9563',
    meananomaly => '80.5628',
    eccentricity => '0.0011183',
    meanmotion => '14.13802023',
    inclination => '98.9843',
    number => '88089',
    argperigee => '279.428',
    mm1 => '2.84e-06',
    mm2 => '0',
    bstar => '0.00017398',
    id => '19531',
    elset => '530',
    epoch => '356.84275291'
  },
  'KO-25' => {
    orbit => '34537',
    raan => '46.9567',
    meananomaly => '307.3895',
    eccentricity => '0.0011067',
    meanmotion => '14.28882912',
    inclination => '98.3797',
    number => '93061',
    argperigee => '52.8296',
    mm1 => '3.18e-06',
    mm2 => '0',
    bstar => '0.00014246',
    id => '22828',
    elset => '840',
    epoch => '356.20510253'
  },
  ISS => {
    orbit => '11933',
    raan => '266.4563',
    meananomaly => '179.3763',
    eccentricity => '0.0007428',
    meanmotion => '15.65810622',
    inclination => '51.5764',
    number => '98067',
    argperigee => '255.2593',
    mm1 => '0.00039742',
    mm2 => '0',
    bstar => '0.00038706',
    id => '25544',
    elset => '412',
    epoch => '356.8598863'
  },
  'NOAA-12' => {
    orbit => '49893',
    raan => '347.6317',
    meananomaly => '205.6445',
    eccentricity => '0.0012697',
    meanmotion => '14.23794435',
    inclination => '98.5607',
    number => '91032',
    argperigee => '154.5362',
    mm1 => '4.82e-06',
    mm2 => '0',
    bstar => '0.00022917',
    id => '21263',
    elset => '976',
    epoch => '356.87719958'
  },
  'NOAA-14' => {
    orbit => '30810',
    raan => '339.195',
    meananomaly => '71.8822',
    eccentricity => '0.0008907',
    meanmotion => '14.12534684',
    inclination => '99.1625',
    number => '94089',
    argperigee => '288.138',
    mm1 => '3.23e-06',
    mm2 => '0',
    bstar => '0.0001998',
    id => '23455',
    elset => '565',
    epoch => '356.8977532'
  },
  'NOAA-15' => {
    orbit => '13556',
    raan => '21.9716',
    meananomaly => '270.0382',
    eccentricity => '0.0011661',
    meanmotion => '14.23433527',
    inclination => '98.6192',
    number => '98030',
    argperigee => '90.2132',
    mm1 => '2.68e-06',
    mm2 => '0',
    bstar => '0.00013675',
    id => '25338',
    elset => '19',
    epoch => '356.86665965'
  },
  'NOAA-16' => {
    orbit => '1255',
    raan => '297.4165',
    meananomaly => '333.5519',
    eccentricity => '0.001136',
    meanmotion => '14.10998417',
    inclination => '98.8052',
    number => '55',
    argperigee => '26.6749',
    mm1 => '2.79e-06',
    mm2 => '0',
    bstar => '0.00017924',
    id => '26536',
    elset => '115',
    epoch => '354.47458394'
  },
  'UO-22' => {
    orbit => '49479',
    raan => '13.9514',
    meananomaly => '356.2423',
    eccentricity => '0.0007902',
    meanmotion => '14.37959666',
    inclination => '98.1366',
    number => '91050',
    argperigee => '3.8825',
    mm1 => '4.2e-06',
    mm2 => '0',
    bstar => '0.00015233',
    id => '21575',
    elset => '91',
    epoch => '356.20595701'
  },
  UARS => {
    orbit => '50718',
    raan => '338.2738',
    meananomaly => '268.6314',
    eccentricity => '0.0004704',
    meanmotion => '14.99167138',
    inclination => '56.9823',
    number => '91063',
    argperigee => '91.5262',
    mm1 => '1.561e-05',
    mm2 => '0',
    bstar => '0.00014729',
    id => '21701',
    elset => '193',
    epoch => '356.20471018'
  },
  'SAUDISAT-1A' => {
    orbit => '1252',
    raan => '292.3793',
    meananomaly => '322.1842',
